ONEWEB-0707             
1 61612U 24188U   25265.81489937  .00000635  00000+0  17833-2 0  9995
2 61612  87.8744  89.5526 0001981 106.0157 254.1189 13.10371266 48305
ONEWEB-0708             
1 61613U 24188V   25266.21491996 -.00000025  00000+0 -10761-3 0  9998
2 61613  87.8750  89.5143 0002349  98.9347 261.2047 13.10369997 48330
